IRIDIUM 112             
1 41925U 17003J   25156.52308229  .00000207  00000+0  66676-4 0  9995
2 41925  86.3974 245.6414 0002157  96.6052 263.5390 14.34216885439285
IRIDIUM 111             
1 41926U 17003K   25156.71970283 -.00000043  00000+0 -22455-4 0  9999
2 41926  86.3977 245.6216 0002311  94.9122 265.2337 14.34217204439365
IRIDIUM 113             
1 42803U 17039A   25156.42059256  .00000030  00000+0  37472-5 0  9999
2 42803  86.3962 119.6761 0002167  91.9344 268.2100 14.34217658417181
IRIDIUM 123             
1 42804U 17039B   25156.46207047 -.00000001  00000+0 -73386-5 0  9991
2 42804  86.3982 151.1149 0002577  88.5837 271.5654 14.34217627415959
IRIDIUM 120             
1 42805U 17039C   25156.41424957  .00000349  00000+0  11746-3 0  9991
2 42805  86.3957 119.5102 0002682  79.9790 280.1708 14.34212448417176
IRIDIUM 115             
1 42806U 17039D   25156.30546199  .00000310  00000+0  86089-4 0  9994
2 42806  86.4489 119.6324 0003110  86.4224 273.7332 14.43278098419904
IRIDIUM 118             
1 42807U 17039E   25156.42401590  .00000035  00000+0  52647-5 0  9991
2 42807  86.3976 151.1304 0002253  90.5009 269.6445 14.34217617415958
IRIDIUM 117             
1 42808U 17039F   25156.44303870  .00000168  00000+0  52788-4 0  9998
2 42808  86.3975 151.0838 0002566  91.9099 268.2390 14.34217352415972
